HAWK-2B                 
1 47508U 21006CZ  26068.67629241  .00009474  00000+0  29651-3 0  9991
2 47508  97.2334 114.1140 0007102 185.9063 174.2098 15.33301353284246
STARLINK-32077          
1 60344U 24136R   26068.41154516  .00000122  00000+0  16244-4 0  9997
2 60344  53.1613  76.8348 0001422  76.8529 283.2631 15.30189785 89627
